{"type": "FeatureCollection", "features": [ {"type": "Feature", "properties": {"norad_id": 66563, "name": "STARLINK-35437", "group": "last-30-days", "lat": -6.6504065730467925, "lon": -0.9669245873514456, "alt_km": 352.2316013479149, "timestamp": "2025-12-04T03:47:53.336688+00:00", "meta": {"OBJECT_NAME": "STARLINK-35437", "OBJECT_ID": "2025-268G", "EPOCH": "2025-12-03T12:00:02.998944", "MEAN_MOTION": 15.75053842, "ECCENTRICITY": 0.0001753, "INCLINATION": 42.9989, "RA_OF_ASC_NODE": 175.8311, "ARG_OF_PERICENTER": 266.9049, "MEAN_ANOMALY": 149.1826, "EPHEMERIS_TYPE": 0, "CLASSIFICATION_TYPE": "U", "NORAD_CAT_ID": 66563, "ELEMENT_SET_NO": 999, "REV_AT_EPOCH": 318, "BSTAR": -0.013757, "MEAN_MOTION_DOT": -0.01847234, "MEAN_MOTION_DDOT": 0}, "tle": {"line1": "1 66563U 25268G   25337.50003471 -.01847234  00000+0 -13757-1 0  9993", "line2": "2 66563  42.9989 175.8311 0001753 266.9049 149.1826 15.75053842  3180"}}, "geometry": {"type": "Point", "coordinates": [-0.9669245873514456, -6.6504065730467925]}}, {"type": "Feature", "properties": {"norad_id": 66564, "name": "STARLINK-35358", "group": "last-30-days", "lat": -7.938464857179932, "lon": 0.44705569525698874, "alt_km": 352.15322027291313, "timestamp": "2025-12-04T03:47:53.336699+00:00", "meta": {"OBJECT_NAME": "STARLINK-35358", "OBJECT_ID": "2025-268H", "EPOCH": "2025-12-03T12:00:02.998944", "MEAN_MOTION": 15.75064183, "ECCENTRICITY": 0.0001764, "INCLINATION": 42.9989, "RA_OF_ASC_NODE": 175.8265, "ARG_OF_PERICENTER": 259.8881, "MEAN_ANOMALY": 158.1208, "EPHEMERIS_TYPE": 0, "CLASSIFICATION_TYPE": "U", "NORAD_CAT_ID": 66564, "ELEMENT_SET_NO": 999, "REV_AT_EPOCH": 313, "BSTAR": -0.013927, "MEAN_MOTION_DOT": -0.01867839, "MEAN_MOTION_DDOT": 0}, "tle": {"line1": "1 66564U 25268H   25337.50003471 -.01867839  00000+0 -13927-1 0  9996", "line2": "2 66564  42.9989 175.8265 0001764 259.8881 158.1208 15.75064183  3135"}}, "geometry": {"type": "Point", "coordinates": [0.44705569525698874, -7.938464857179932]}}, {"type": "Feature", "properties": {"norad_id": 66565, "name": "STARLINK-35893", "group": "last-30-days", "lat": -9.222635814222079, "lon": 1.8704522014783802, "alt_km": 352.6932377327239, "timestamp": "2025-12-04T03:47:53.336708+00:00", "meta": {"OBJECT_NAME": "STARLINK-35893", "OBJECT_ID": "2025-268J", "EPOCH": "2025-12-03T12:00:02.998944", "MEAN_MOTION": 15.75083026, "ECCENTRICITY": 0.00019, "INCLINATION": 42.9989, "RA_OF_ASC_NODE": 175.8214, "ARG_OF_PERICENTER": 272.575, "MEAN_ANOMALY": 147.3418, "EPHEMERIS_TYPE": 0, "CLASSIFICATION_TYPE": "U", "NORAD_CAT_ID": 66565, "ELEMENT_SET_NO": 999, "REV_AT_EPOCH": 318, "BSTAR": -0.014095, "MEAN_MOTION_DOT": -0.01888811, "MEAN_MOTION_DDOT": 0}, "tle": {"line1": "1 66565U 25268J   25337.50003471 -.01888811  00000+0 -14095-1 0  9997", "line2": "2 66565  42.9989 175.8214 0001900 272.5750 147.3418 15.75083026  3184"}}, "geometry": {"type": "Point", "coordinates": [1.8704522014783802, -9.222635814222079]}}, {"type": "Feature", "properties": {"norad_id": 66566, "name": "STARLINK-35871", "group": "last-30-days", "lat": -10.508438002014866, "lon": 3.312911659952539, "alt_km": 352.6311036624347, "timestamp": "2025-12-04T03:47:53.336718+00:00", "meta": {"OBJECT_NAME": "STARLINK-35871", "OBJECT_ID": "2025-268K", "EPOCH": "2025-12-03T12:00:02.998944", "MEAN_MOTION": 15.75066235, "ECCENTRICITY": 0.0001932, "INCLINATION": 42.999, "RA_OF_ASC_NODE": 175.8167, "ARG_OF_PERICENTER": 269.4746, "MEAN_ANOMALY": 152.3672, "EPHEMERIS_TYPE": 0, "CLASSIFICATION_TYPE": "U", "NORAD_CAT_ID": 66566, "ELEMENT_SET_NO": 999, "REV_AT_EPOCH": 318, "BSTAR": -0.013947, "MEAN_MOTION_DOT": -0.01870486, "MEAN_MOTION_DDOT": 0}, "tle": {"line1": "1 66566U 25268K   25337.50003471 -.01870486  00000+0 -13947-1 0  9992", "line2": "2 66566  42.9990 175.8167 0001932 269.4746 152.3672 15.75066235  3180"}}, "geometry": {"type": "Point", "coordinates": [3.312911659952539, -10.508438002014866]}}, {"type": "Feature", "properties": {"norad_id": 66567, "name": "STARLINK-35825", "group": "last-30-days", "lat": -11.784066452273139, "lon": 4.7632300945901145, "alt_km": 352.63577645057103, "timestamp": "2025-12-04T03:47:53.336728+00:00", "meta": {"OBJECT_NAME": "STARLINK-35825", "OBJECT_ID": "2025-268L", "EPOCH": "2025-12-03T12:00:02.998944", "MEAN_MOTION": 15.75090051, "ECCENTRICITY": 0.0001578, "INCLINATION": 42.9991, "RA_OF_ASC_NODE": 175.8119, "ARG_OF_PERICENTER": 263.669, "MEAN_ANOMALY": 160.0789, "EPHEMERIS_TYPE": 0, "CLASSIFICATION_TYPE": "U", "NORAD_CAT_ID": 66567, "ELEMENT_SET_NO": 999, "REV_AT_EPOCH": 318, "BSTAR": -0.014171, "MEAN_MOTION_DOT": -0.01897887, "MEAN_MOTION_DDOT": 0}, "tle": {"line1": "1 66567U 25268L   25337.50003471 -.01897887  00000+0 -14171-1 0  9997", "line2": "2 66567  42.9991 175.8119 0001578 263.6690 160.0789 15.75090051  3187"}}, "geometry": {"type": "Point", "coordinates": [4.7632300945901145, -11.784066452273139]}}, {"type": "Feature", "properties": {"norad_id": 66568, "name": "STARLINK-35803", "group": "last-30-days", "lat": -13.060108568347571, "lon": 6.2357945517619005, "alt_km": 352.7825775786496, "timestamp": "2025-12-04T03:47:53.336738+00:00", "meta": {"OBJECT_NAME": "STARLINK-35803", "OBJECT_ID": "2025-268M", "EPOCH": "2025-12-03T12:00:02.998944", "MEAN_MOTION": 15.75076701, "ECCENTRICITY": 0.0001349, "INCLINATION": 42.9989, "RA_OF_ASC_NODE": 175.8065, "ARG_OF_PERICENTER": 265.1759, "MEAN_ANOMALY": 160.4961, "EPHEMERIS_TYPE": 0, "CLASSIFICATION_TYPE": "U", "NORAD_CAT_ID": 66568, "ELEMENT_SET_NO": 999, "REV_AT_EPOCH": 318, "BSTAR": -0.014035, "MEAN_MOTION_DOT": -0.01880951, "MEAN_MOTION_DDOT": 0}, "tle": {"line1": "1 66568U 25268M   25337.50003471 -.01880951  00000+0 -14035-1 0  9991", "line2": "2 66568  42.9989 175.8065 0001349 265.1759 160.4961 15.75076701  3186"}}, "geometry": {"type": "Point", "coordinates": [6.2357945517619005, -13.060108568347571]}}, {"type": "Feature", "properties": {"norad_id": 66569, "name": "STARLINK-35835", "group": "last-30-days", "lat": -14.318928775422911, "lon": 7.713995377374701, "alt_km": 352.5733266558673, "timestamp": "2025-12-04T03:47:53.336748+00:00", "meta": {"OBJECT_NAME": "STARLINK-35835", "OBJECT_ID": "2025-268N", "EPOCH": "2025-12-03T12:00:02.998944", "MEAN_MOTION": 15.75066895, "ECCENTRICITY": 0.0001745, "INCLINATION": 42.9991, "RA_OF_ASC_NODE": 175.802, "ARG_OF_PERICENTER": 259.1999, "MEAN_ANOMALY": 168.3916, "EPHEMERIS_TYPE": 0, "CLASSIFICATION_TYPE": "U", "NORAD_CAT_ID": 66569, "ELEMENT_SET_NO": 999, "REV_AT_EPOCH": 318, "BSTAR": -0.013949, "MEAN_MOTION_DOT": -0.01870601, "MEAN_MOTION_DDOT": 0}, "tle": {"line1": "1 66569U 25268N   25337.50003471 -.01870601  00000+0 -13949-1 0  9996", "line2": "2 66569  42.9991 175.8020 0001745 259.1999 168.3916 15.75066895  3180"}}, "geometry": {"type": "Point", "coordinates": [7.713995377374701, -14.318928775422911]}}, {"type": "Feature", "properties": {"norad_id": 66570, "name": "STARLINK-35834", "group": "last-30-days", "lat": -15.56820679923133, "lon": 9.208369154902226, "alt_km": 353.07166443411825, "timestamp": "2025-12-04T03:47:53.336759+00:00", "meta": {"OBJECT_NAME": "STARLINK-35834", "OBJECT_ID": "2025-268P", "EPOCH": "2025-12-03T12:00:02.998944", "MEAN_MOTION": 15.75059067, "ECCENTRICITY": 0.0001955, "INCLINATION": 42.9989, "RA_OF_ASC_NODE": 175.7971, "ARG_OF_PERICENTER": 274.2541, "MEAN_ANOMALY": 155.2601, "EPHEMERIS_TYPE": 0, "CLASSIFICATION_TYPE": "U", "NORAD_CAT_ID": 66570, "ELEMENT_SET_NO": 999, "REV_AT_EPOCH": 318, "BSTAR": -0.013885, "MEAN_MOTION_DOT": -0.01862768, "MEAN_MOTION_DDOT": 0}, "tle": {"line1": "1 66570U 25268P   25337.50003471 -.01862768  00000+0 -13885-1 0  9992", "line2": "2 66570  42.9989 175.7971 0001955 274.2541 155.2601 15.75059067  3186"}}, "geometry": {"type": "Point", "coordinates": [9.208369154902226, -15.56820679923133]}}, {"type": "Feature", "properties": {"norad_id": 66571, "name": "STARLINK-35836", "group": "last-30-days", "lat": -16.80925242460499, "lon": 10.723707637174448, "alt_km": 353.1807612409102, "timestamp": "2025-12-04T03:47:53.336769+00:00", "meta": {"OBJECT_NAME": "STARLINK-35836", "OBJECT_ID": "2025-268Q", "EPOCH": "2025-12-03T12:00:02.998944", "MEAN_MOTION": 15.75082198, "ECCENTRICITY": 0.0001507, "INCLINATION": 42.9989, "RA_OF_ASC_NODE": 175.7925, "ARG_OF_PERICENTER": 271.3235, "MEAN_ANOMALY": 160.0993, "EPHEMERIS_TYPE": 0, "CLASSIFICATION_TYPE": "U", "NORAD_CAT_ID": 66571, "ELEMENT_SET_NO": 999, "REV_AT_EPOCH": 318, "BSTAR": -0.014108, "MEAN_MOTION_DOT": -0.01889914, "MEAN_MOTION_DDOT": 0}, "tle": {"line1": "1 66571U 25268Q   25337.50003471 -.01889914  00000+0 -14108-1 0  9994", "line2": "2 66571  42.9989 175.7925 0001507 271.3235 160.0993 15.75082198  3186"}}, "geometry": {"type": "Point", "coordinates": [10.723707637174448, -16.80925242460499]}}, {"type": "Feature", "properties": {"norad_id": 66572, "name": "STARLINK-35870", "group": "last-30-days", "lat": -18.014070064399572, "lon": 12.231757852535866, "alt_km": 353.47238703679614, "timestamp": "2025-12-04T03:47:53.336782+00:00", "meta": {"OBJECT_NAME": "STARLINK-35870", "OBJECT_ID": "2025-268R", "EPOCH": "2025-12-03T20:00:01.999008", "MEAN_MOTION": 15.73692315, "ECCENTRICITY": 0.0001524, "INCLINATION": 42.9989, "RA_OF_ASC_NODE": 173.7717, "ARG_OF_PERICENTER": 270.8747, "MEAN_ANOMALY": 253.9512, "EPHEMERIS_TYPE": 0, "CLASSIFICATION_TYPE": "U", "NORAD_CAT_ID": 66572, "ELEMENT_SET_NO": 999, "REV_AT_EPOCH": 323, "BSTAR": -0.015014, "MEAN_MOTION_DOT": -0.01891772, "MEAN_MOTION_DDOT": 0}, "tle": {"line1": "1 66572U 25268R   25337.83335647 -.01891772  00000+0 -15014-1 0  9996", "line2": "2 66572  42.9989 173.7717 0001524 270.8747 253.9512 15.73692315  3236"}}, "geometry": {"type": "Point", "coordinates": [12.231757852535866, -18.014070064399572]}}]}